{"type": "FeatureCollection", "features": [ {"type": "Feature", "properties": {"norad_id": 31477, "name": "FENGYUN 1C DEB", "group": "fengyun-1c-debris", "lat": -8.757974625869503, "lon": -7.727702853823487, "alt_km": 808.052695808593, "timestamp": "2025-12-27T12:55:14.788246+00:00", "meta": {"OBJECT_NAME": "FENGYUN 1C DEB", "OBJECT_ID": "1999-025BVR", "EPOCH": "2025-12-23T16:32:04.337376", "MEAN_MOTION": 14.02935294, "ECCENTRICITY": 0.01097133, "INCLINATION": 98.8872, "RA_OF_ASC_NODE": 347.133, "ARG_OF_PERICENTER": 358.4238, "MEAN_ANOMALY": 1.6568, "EPHEMERIS_TYPE": 0, "CLASSIFICATION_TYPE": "U", "NORAD_CAT_ID": 31477, "ELEMENT_SET_NO": 999, "REV_AT_EPOCH": 95557, "BSTAR": 0.00038195011, "MEAN_MOTION_DOT": 5.81e-06, "MEAN_MOTION_DDOT": 0}, "tle": {"line1": "1 31477U 99025BVR 25357.68893909  .00000581  00000+0  38195-3 0  9993", "line2": "2 31477  98.8872 347.1330 0109713 358.4238   1.6568 14.02935294955577"}}, "geometry": {"type": "Point", "coordinates": [-7.727702853823487, -8.757974625869503]}}, {"type": "Feature", "properties": {"norad_id": 31480, "name": "FENGYUN 1C DEB", "group": "fengyun-1c-debris", "lat": 44.49444779051244, "lon": -157.0739714876213, "alt_km": 1097.4450122049748, "timestamp": "2025-12-27T12:55:14.788256+00:00", "meta": {"OBJECT_NAME": "FENGYUN 1C DEB", "OBJECT_ID": "1999-025BVU", "EPOCH": "2025-12-27T00:35:52.811520", "MEAN_MOTION": 13.90065335, "ECCENTRICITY": 0.03434781, "INCLINATION": 98.3397, "RA_OF_ASC_NODE": 210.7506, "ARG_OF_PERICENTER": 181.5484, "MEAN_ANOMALY": 178.4644, "EPHEMERIS_TYPE": 0, "CLASSIFICATION_TYPE": "U", "NORAD_CAT_ID": 31480, "ELEMENT_SET_NO": 999, "REV_AT_EPOCH": 93594, "BSTAR": 0.0031009781, "MEAN_MOTION_DOT": 6.13e-05, "MEAN_MOTION_DDOT": 0}, "tle": {"line1": "1 31480U 99025BVU 25361.02491680  .00006130  00000+0  31010-2 0  9994", "line2": "2 31480  98.3397 210.7506 0343478 181.5484 178.4644 13.90065335935947"}}, "geometry": {"type": "Point", "coordinates": [-157.0739714876213, 44.49444779051244]}}, {"type": "Feature", "properties": {"norad_id": 31482, "name": "FENGYUN 1C DEB", "group": "fengyun-1c-debris", "lat": 26.14850469775148, "lon": 0.8311055671323253, "alt_km": 825.953081102427, "timestamp": "2025-12-27T12:55:14.788267+00:00", "meta": {"OBJECT_NAME": "FENGYUN 1C DEB", "OBJECT_ID": "1999-025BVW", "EPOCH": "2025-12-26T23:40:55.517088", "MEAN_MOTION": 14.3571403, "ECCENTRICITY": 0.0088802, "INCLINATION": 98.3826, "RA_OF_ASC_NODE": 4.4462, "ARG_OF_PERICENTER": 239.3288, "MEAN_ANOMALY": 177.2944, "EPHEMERIS_TYPE": 0, "CLASSIFICATION_TYPE": "U", "NORAD_CAT_ID": 31482, "ELEMENT_SET_NO": 999, "REV_AT_EPOCH": 97334, "BSTAR": 0.00071583, "MEAN_MOTION_DOT": 2.119e-05, "MEAN_MOTION_DDOT": 0}, "tle": {"line1": "1 31482U 99025BVW 25360.98675367  .00002119  00000+0  71583-3 0  9999", "line2": "2 31482  98.3826   4.4462 0088802 239.3288 177.2944 14.35714030973345"}}, "geometry": {"type": "Point", "coordinates": [0.8311055671323253, 26.14850469775148]}}, {"type": "Feature", "properties": {"norad_id": 31483, "name": "FENGYUN 1C DEB", "group": "fengyun-1c-debris", "lat": -73.1831054132987, "lon": 4.9594008183988265, "alt_km": 855.3567054683463, "timestamp": "2025-12-27T12:55:14.788277+00:00", "meta": {"OBJECT_NAME": "FENGYUN 1C DEB", "OBJECT_ID": "1999-025BVX", "EPOCH": "2025-12-25T16:20:58.735104", "MEAN_MOTION": 14.16165365, "ECCENTRICITY": 0.01178017, "INCLINATION": 102.5049, "RA_OF_ASC_NODE": 315.1162, "ARG_OF_PERICENTER": 188.5674, "MEAN_ANOMALY": 347.9676, "EPHEMERIS_TYPE": 0, "CLASSIFICATION_TYPE": "U", "NORAD_CAT_ID": 31483, "ELEMENT_SET_NO": 999, "REV_AT_EPOCH": 94889, "BSTAR": 0.002430612, "MEAN_MOTION_DOT": 5.074e-05, "MEAN_MOTION_DDOT": 0}, "tle": {"line1": "1 31483U 99025BVX 25359.68123536  .00005074  00000+0  24306-2 0  9994", "line2": "2 31483 102.5049 315.1162 0117801 188.5674 347.9676 14.16165365948896"}}, "geometry": {"type": "Point", "coordinates": [4.9594008183988265, -73.1831054132987]}}, {"type": "Feature", "properties": {"norad_id": 31484, "name": "FENGYUN 1C DEB", "group": "fengyun-1c-debris", "lat": -20.469381574997396, "lon": -51.7043897878556, "alt_km": 767.5460589193681, "timestamp": "2025-12-27T12:55:14.788287+00:00", "meta": {"OBJECT_NAME": "FENGYUN 1C DEB", "OBJECT_ID": "1999-025BVY", "EPOCH": "2025-12-23T01:26:10.111200", "MEAN_MOTION": 14.50731885, "ECCENTRICITY": 0.00830007, "INCLINATION": 101.8064, "RA_OF_ASC_NODE": 297.5559, "ARG_OF_PERICENTER": 124.1407, "MEAN_ANOMALY": 236.7682, "EPHEMERIS_TYPE": 0, "CLASSIFICATION_TYPE": "U", "NORAD_CAT_ID": 31484, "ELEMENT_SET_NO": 999, "REV_AT_EPOCH": 64387, "BSTAR": 0.0046453294, "MEAN_MOTION_DOT": 0.00019079, "MEAN_MOTION_DDOT": 0}, "tle": {"line1": "1 31484U 99025BVY 25357.05983925  .00019079  00000+0  46453-2 0  9997", "line2": "2 31484 101.8064 297.5559 0083000 124.1407 236.7682 14.50731885643878"}}, "geometry": {"type": "Point", "coordinates": [-51.7043897878556, -20.469381574997396]}}, {"type": "Feature", "properties": {"norad_id": 31485, "name": "FENGYUN 1C DEB", "group": "fengyun-1c-debris", "lat": -48.655987290657386, "lon": -152.57101886276095, "alt_km": 805.1142821627891, "timestamp": "2025-12-27T12:55:14.788298+00:00", "meta": {"OBJECT_NAME": "FENGYUN 1C DEB", "OBJECT_ID": "1999-025BVZ", "EPOCH": "2025-12-26T08:29:24.129600", "MEAN_MOTION": 13.40108445, "ECCENTRICITY": 0.0446295, "INCLINATION": 102.7183, "RA_OF_ASC_NODE": 191.0703, "ARG_OF_PERICENTER": 289.5865, "MEAN_ANOMALY": 65.7598, "EPHEMERIS_TYPE": 0, "CLASSIFICATION_TYPE": "U", "NORAD_CAT_ID": 31485, "ELEMENT_SET_NO": 999, "REV_AT_EPOCH": 90627, "BSTAR": 0.0027701, "MEAN_MOTION_DOT": 2.642e-05, "MEAN_MOTION_DDOT": 0}, "tle": {"line1": "1 31485U 99025BVZ 25360.35375150  .00002642  00000+0  27701-2 0  9993", "line2": "2 31485 102.7183 191.0703 0446295 289.5865  65.7598 13.40108445906273"}}, "geometry": {"type": "Point", "coordinates": [-152.57101886276095, -48.655987290657386]}}, {"type": "Feature", "properties": {"norad_id": 31487, "name": "FENGYUN 1C DEB", "group": "fengyun-1c-debris", "lat": -71.06579061401165, "lon": -44.79913711582639, "alt_km": 824.8075193436771, "timestamp": "2025-12-27T12:55:14.788308+00:00", "meta": {"OBJECT_NAME": "FENGYUN 1C DEB", "OBJECT_ID": "1999-025BWB", "EPOCH": "2025-12-26T18:35:52.920384", "MEAN_MOTION": 13.97795775, "ECCENTRICITY": 0.01193896, "INCLINATION": 102.4139, "RA_OF_ASC_NODE": 174.1183, "ARG_OF_PERICENTER": 273.1497, "MEAN_ANOMALY": 102.9015, "EPHEMERIS_TYPE": 0, "CLASSIFICATION_TYPE": "U", "NORAD_CAT_ID": 31487, "ELEMENT_SET_NO": 999, "REV_AT_EPOCH": 94608, "BSTAR": 0.0017913664, "MEAN_MOTION_DOT": 2.62e-05, "MEAN_MOTION_DDOT": 0}, "tle": {"line1": "1 31487U 99025BWB 25360.77491806  .00002620  00000+0  17914-2 0  9999", "line2": "2 31487 102.4139 174.1183 0119389 273.1497 102.9015 13.97795775946089"}}, "geometry": {"type": "Point", "coordinates": [-44.79913711582639, -71.06579061401165]}}, {"type": "Feature", "properties": {"norad_id": 31491, "name": "FENGYUN 1C DEB", "group": "fengyun-1c-debris", "lat": 50.58111069402788, "lon": -100.67548643601816, "alt_km": 865.6444177066915, "timestamp": "2025-12-27T12:55:14.788319+00:00", "meta": {"OBJECT_NAME": "FENGYUN 1C DEB", "OBJECT_ID": "1999-025BWE", "EPOCH": "2025-12-25T23:24:11.230272", "MEAN_MOTION": 14.17348825, "ECCENTRICITY": 0.0050191, "INCLINATION": 99.3079, "RA_OF_ASC_NODE": 269.1977, "ARG_OF_PERICENTER": 230.8309, "MEAN_ANOMALY": 128.84, "EPHEMERIS_TYPE": 0, "CLASSIFICATION_TYPE": "U", "NORAD_CAT_ID": 31491, "ELEMENT_SET_NO": 999, "REV_AT_EPOCH": 63915, "BSTAR": 0.0017221, "MEAN_MOTION_DOT": 3.48e-05, "MEAN_MOTION_DDOT": 0}, "tle": {"line1": "1 31491U 99025BWE 25359.97512998  .00003480  00000+0  17221-2 0  9996", "line2": "2 31491  99.3079 269.1977 0050191 230.8309 128.8400 14.17348825639159"}}, "geometry": {"type": "Point", "coordinates": [-100.67548643601816, 50.58111069402788]}}, {"type": "Feature", "properties": {"norad_id": 31492, "name": "FENGYUN 1C DEB", "group": "fengyun-1c-debris", "lat": -76.14738015721566, "lon": -151.9453678073639, "alt_km": 630.2896108418827, "timestamp": "2025-12-27T12:55:14.788329+00:00", "meta": {"OBJECT_NAME": "FENGYUN 1C DEB", "OBJECT_ID": "1999-025BWF", "EPOCH": "2025-12-22T22:16:59.719872", "MEAN_MOTION": 14.71117312, "ECCENTRICITY": 0.00645708, "INCLINATION": 98.856, "RA_OF_ASC_NODE": 163.8283, "ARG_OF_PERICENTER": 336.971, "MEAN_ANOMALY": 22.8602, "EPHEMERIS_TYPE": 0, "CLASSIFICATION_TYPE": "U", "NORAD_CAT_ID": 31492, "ELEMENT_SET_NO": 999, "REV_AT_EPOCH": 96656, "BSTAR": 0.0033267446, "MEAN_MOTION_DOT": 0.00021138, "MEAN_MOTION_DDOT": 0}, "tle": {"line1": "1 31492U 99025BWF 25356.92846898  .00021138  00000+0  33267-2 0  9996", "line2": "2 31492  98.8560 163.8283 0064570 336.9710  22.8602 14.71117312966569"}}, "geometry": {"type": "Point", "coordinates": [-151.9453678073639, -76.14738015721566]}}, {"type": "Feature", "properties": {"norad_id": 31493, "name": "FENGYUN 1C DEB", "group": "fengyun-1c-debris", "lat": 42.03465582138118, "lon": -60.45637133327965, "alt_km": 918.719756151766, "timestamp": "2025-12-27T12:55:14.788340+00:00", "meta": {"OBJECT_NAME": "FENGYUN 1C DEB", "OBJECT_ID": "1999-025BWG", "EPOCH": "2025-12-27T02:22:15.048192", "MEAN_MOTION": 13.92999476, "ECCENTRICITY": 0.01174154, "INCLINATION": 100.1376, "RA_OF_ASC_NODE": 308.3446, "ARG_OF_PERICENTER": 137.5196, "MEAN_ANOMALY": 223.5121, "EPHEMERIS_TYPE": 0, "CLASSIFICATION_TYPE": "U", "NORAD_CAT_ID": 31493, "ELEMENT_SET_NO": 999, "REV_AT_EPOCH": 60066, "BSTAR": 0.00080065101, "MEAN_MOTION_DOT": 1.05e-05, "MEAN_MOTION_DDOT": 0}, "tle": {"line1": "1 31493U 99025BWG 25361.09878528  .00001050  00000+0  80065-3 0  9996", "line2": "2 31493 100.1376 308.3446 0117415 137.5196 223.5121 13.92999476600662"}}, "geometry": {"type": "Point", "coordinates": [-60.45637133327965, 42.03465582138118]}}]}